{
  "type": "FeatureCollection",
  "features": [
    {
      "type": "Feature",
      "properties": {
        "norad_id": 44334,
        "name": "EUTELSAT 7C",
        "group": "eutelsat",
        "lat": -0.01973896696778853,
        "lon": -174.12412950059732,
        "alt_km": 35777.216044097855,
        "timestamp": "2025-12-02T07:10:08.781119+00:00",
        "meta_object_name": "EUTELSAT 7C",
        "meta_object_id": "2019-034B",
        "meta_epoch": "2025-12-01T18:58:59.572128",
        "meta_mean_motion": 1.00269156,
        "meta_eccentricity": 0.0003347,
        "meta_inclination": 0.0765,
        "meta_ra_of_asc_node": 182.3559,
        "meta_arg_of_pericenter": 50.9471,
        "meta_mean_anomaly": 129.3458,
        "meta_ephemeris_type": 0,
        "meta_classification_type": "U",
        "meta_norad_cat_id": 44334,
        "meta_element_set_no": 999,
        "meta_rev_at_epoch": 485,
        "meta_bstar": 0,
        "meta_mean_motion_dot": 6.9e-07,
        "meta_mean_motion_ddot": 0,
        "tle_line1": "1 44334U 19034B   25335.79096727  .00000069  00000+0  00000+0 0  9993",
        "tle_line2": "2 44334   0.0765 182.3559 0003347  50.9471 129.3458  1.00269156  4853"
      },
      "geometry": {
        "type": "Point",
        "coordinates": [
          -174.12412950059732,
          -0.01973896696778853
        ]
      }
    },
    {
      "type": "Feature",
      "properties": {
        "norad_id": 44624,
        "name": "EUTELSAT 5 WEST B",
        "group": "eutelsat",
        "lat": -0.05067107251755089,
        "lon": 173.88212481715803,
        "alt_km": 35782.504838456414,
        "timestamp": "2025-12-02T07:10:08.781131+00:00",
        "meta_object_name": "EUTELSAT 5 WEST B",
        "meta_object_id": "2019-067A",
        "meta_epoch": "2025-12-01T18:55:37.396128",
        "meta_mean_motion": 1.00272608,
        "meta_eccentricity": 0.0003618,
        "meta_inclination": 0.0736,
        "meta_ra_of_asc_node": 325.104,
        "meta_arg_of_pericenter": 286.2446,
        "meta_mean_anomaly": 98.4679,
        "meta_ephemeris_type": 0,
        "meta_classification_type": "U",
        "meta_norad_cat_id": 44624,
        "meta_element_set_no": 999,
        "meta_rev_at_epoch": 2245,
        "meta_bstar": 0,
        "meta_mean_motion_dot": -2e-07,
        "meta_mean_motion_ddot": 0,
        "tle_line1": "1 44624U 19067A   25335.78862727 -.00000020  00000+0  00000+0 0  9999",
        "tle_line2": "2 44624   0.0736 325.1040 0003618 286.2446  98.4679  1.00272608 22455"
      },
      "geometry": {
        "type": "Point",
        "coordinates": [
          173.88212481715803,
          -0.05067107251755089
        ]
      }
    },
    {
      "type": "Feature",
      "properties": {
        "norad_id": 45027,
        "name": "EUTELSAT KONNECT",
        "group": "eutelsat",
        "lat": 0.04487375008352597,
        "lon": -173.92300170176014,
        "alt_km": 35788.61042107113,
        "timestamp": "2025-12-02T07:10:08.781143+00:00",
        "meta_object_name": "EUTELSAT KONNECT",
        "meta_object_id": "2020-005B",
        "meta_epoch": "2025-12-01T18:59:07.061280",
        "meta_mean_motion": 1.0026766,
        "meta_eccentricity": 0.0001693,
        "meta_inclination": 0.0676,
        "meta_ra_of_asc_node": 98.9415,
        "meta_arg_of_pericenter": 188.8252,
        "meta_mean_anomaly": 75.1077,
        "meta_ephemeris_type": 0,
        "meta_classification_type": "U",
        "meta_norad_cat_id": 45027,
        "meta_element_set_no": 999,
        "meta_rev_at_epoch": 2234,
        "meta_bstar": 0,
        "meta_mean_motion_dot": 7e-07,
        "meta_mean_motion_ddot": 0,
        "tle_line1": "1 45027U 20005B   25335.79105395  .00000070  00000+0  00000+0 0  9997",
        "tle_line2": "2 45027   0.0676  98.9415 0001693 188.8252  75.1077  1.00267660 22344"
      },
      "geometry": {
        "type": "Point",
        "coordinates": [
          -173.92300170176014,
          0.04487375008352597
        ]
      }
    },
    {
      "type": "Feature",
      "properties": {
        "norad_id": 49056,
        "name": "EUTELSAT QUANTUM",
        "group": "eutelsat",
        "lat": -0.02813533010252451,
        "lon": -133.40143734537153,
        "alt_km": 35773.54612608845,
        "timestamp": "2025-12-02T07:10:08.781160+00:00",
        "meta_object_name": "EUTELSAT QUANTUM",
        "meta_object_id": "2021-069B",
        "meta_epoch": "2025-12-01T19:10:35.961312",
        "meta_mean_motion": 1.00271983,
        "meta_eccentricity": 0.0003679,
        "meta_inclination": 0.0143,
        "meta_ra_of_asc_node": 359.0602,
        "meta_arg_of_pericenter": 264.7647,
        "meta_mean_anomaly": 142.448,
        "meta_ephemeris_type": 0,
        "meta_classification_type": "U",
        "meta_norad_cat_id": 49056,
        "meta_element_set_no": 999,
        "meta_rev_at_epoch": 1594,
        "meta_bstar": 0,
        "meta_mean_motion_dot": 1.47e-06,
        "meta_mean_motion_ddot": 0,
        "tle_line1": "1 49056U 21069B   25335.79902733  .00000147  00000+0  00000+0 0  9990",
        "tle_line2": "2 49056   0.0143 359.0602 0003679 264.7647 142.4480  1.00271983 15943"
      },
      "geometry": {
        "type": "Point",
        "coordinates": [
          -133.40143734537153,
          -0.02813533010252451
        ]
      }
    },
    {
      "type": "Feature",
      "properties": {
        "norad_id": 53765,
        "name": "EUTELSAT KONNECT VHTS",
        "group": "eutelsat",
        "lat": 0.03500108347679003,
        "lon": -178.41498172191808,
        "alt_km": 35776.26229596135,
        "timestamp": "2025-12-02T07:10:08.781172+00:00",
        "meta_object_name": "EUTELSAT KONNECT VHTS",
        "meta_object_id": "2022-110A",
        "meta_epoch": "2025-12-01T10:21:38.859264",
        "meta_mean_motion": 1.00269432,
        "meta_eccentricity": 0.00031139,
        "meta_inclination": 0.0567,
        "meta_ra_of_asc_node": 108.6936,
        "meta_arg_of_pericenter": 110.2921,
        "meta_mean_anomaly": 9.6774,
        "meta_ephemeris_type": 0,
        "meta_classification_type": "U",
        "meta_norad_cat_id": 53765,
        "meta_element_set_no": 999,
        "meta_rev_at_epoch": 484,
        "meta_bstar": 0,
        "meta_mean_motion_dot": 3.9e-07,
        "meta_mean_motion_ddot": 0,
        "tle_line1": "1 53765U 22110A   25335.43169976  .00000039  00000+0  00000+0 0  9995",
        "tle_line2": "2 53765   0.0567 108.6936 0003113 110.2921   9.6774  1.00269432  4849"
      },
      "geometry": {
        "type": "Point",
        "coordinates": [
          -178.41498172191808,
          0.03500108347679003
        ]
      }
    },
    {
      "type": "Feature",
      "properties": {
        "norad_id": 54048,
        "name": "EUTELSAT HOTBIRD 13F",
        "group": "eutelsat",
        "lat": -0.0737102939766703,
        "lon": -168.0897435503407,
        "alt_km": 35794.08463680243,
        "timestamp": "2025-12-02T07:10:08.781183+00:00",
        "meta_object_name": "EUTELSAT HOTBIRD 13F",
        "meta_object_id": "2022-134A",
        "meta_epoch": "2025-12-01T15:35:14.925984",
        "meta_mean_motion": 1.00270959,
        "meta_eccentricity": 0.0001929,
        "meta_inclination": 0.0544,
        "meta_ra_of_asc_node": 288.7983,
        "meta_arg_of_pericenter": 67.722,
        "meta_mean_anomaly": 321.0618,
        "meta_ephemeris_type": 0,
        "meta_classification_type": "U",
        "meta_norad_cat_id": 54048,
        "meta_element_set_no": 999,
        "meta_rev_at_epoch": 1139,
        "meta_bstar": 0,
        "meta_mean_motion_dot": 1.09e-06,
        "meta_mean_motion_ddot": 0,
        "tle_line1": "1 54048U 22134A   25335.64947831  .00000109  00000+0  00000+0 0  9991",
        "tle_line2": "2 54048   0.0544 288.7983 0001929  67.7220 321.0618  1.00270959 11394"
      },
      "geometry": {
        "type": "Point",
        "coordinates": [
          -168.0897435503407,
          -0.0737102939766703
        ]
      }
    },
    {
      "type": "Feature",
      "properties": {
        "norad_id": 54225,
        "name": "EUTELSAT HOTBIRD 13G",
        "group": "eutelsat",
        "lat": -0.0493322841334533,
        "lon": -168.08574451017506,
        "alt_km": 35777.56963759243,
        "timestamp": "2025-12-02T07:10:08.781195+00:00",
        "meta_object_name": "EUTELSAT HOTBIRD 13G",
        "meta_object_id": "2022-146A",
        "meta_epoch": "2025-12-01T15:35:14.925984",
        "meta_mean_motion": 1.0027091,
        "meta_eccentricity": 0.0002093,
        "meta_inclination": 0.0473,
        "meta_ra_of_asc_node": 238.5153,
        "meta_arg_of_pericenter": 304.5524,
        "meta_mean_anomaly": 134.5091,
        "meta_ephemeris_type": 0,
        "meta_classification_type": "U",
        "meta_norad_cat_id": 54225,
        "meta_element_set_no": 999,
        "meta_rev_at_epoch": 548,
        "meta_bstar": 0,
        "meta_mean_motion_dot": 1.09e-06,
        "meta_mean_motion_ddot": 0,
        "tle_line1": "1 54225U 22146A   25335.64947831  .00000109  00000+0  00000+0 0  9991",
        "tle_line2": "2 54225   0.0473 238.5153 0002093 304.5524 134.5091  1.00270910  5488"
      },
      "geometry": {
        "type": "Point",
        "coordinates": [
          -168.08574451017506,
          -0.0493322841334533
        ]
      }
    }
  ]
}